ONEWEB-0547             
1 56049U 23043D   26167.94534194 -.00000005  00000+0 -44091-4 0  9995
2 56049  87.9259 244.0223 0001963 104.0887 256.0465 13.21825492158199
ONEWEB-0548             
1 56050U 23043E   26168.12412435  .00000048  00000+0  93020-4 0  9992
2 56050  87.9096 228.7827 0002003  84.9876 275.1484 13.16597325158951
ONEWEB-0549             
1 56051U 23043F   26167.93945873  .00000023  00000+0  24469-4 0  9992
2 56051  87.9253 244.0299 0002126 109.8041 250.3322 13.21825537158195
ONEWEB-0550             
1 56052U 23043G   26168.15310041  .00000186  00000+0  41994-3 0  9992
2 56052  87.9255 243.9851 0001904  93.6448 266.4904 13.21825976158229
ONEWEB-0551             
1 56053U 23043H   26168.30734433  .00000181  00000+0  44781-3 0  9997
2 56053  87.9001 259.2023 0001967 111.3036 248.8304 13.15549218156412
ONEWEB-0552             
1 56054U 23043J   26168.14802370  .00000102  00000+0  21631-3 0  9998
2 56054  87.9251 243.9914 0001850 100.8758 259.2584 13.21828421158224
ONEWEB-0553             
1 56055U 23043K   26168.10593457  .00000003  00000+0 -26341-4 0  9993
2 56055  87.9096 228.7906 0002430  93.6627 266.4782 13.16594456158966
ONEWEB-0554             
1 56056U 23043L   26168.09328013  .00000082  00000+0  18204-3 0  9990
2 56056  87.9096 228.8020 0001963  82.3932 277.7421 13.16595652158941
ONEWEB-0555             
1 56057U 23043M   26168.13124547  .00000018  00000+0  12400-4 0  9994
2 56057  87.9100 228.7828 0002652  94.5030 265.6404 13.16596433158959
ONEWEB-0557             
1 56058U 23043N   26168.14551330  .00000114  00000+0  26367-3 0  9993
2 56058  87.9097 228.7899 0002746  71.9624 288.1806 13.16594583158955
ONEWEB-0558             
1 56059U 23043P   26168.14129675  .00000039  00000+0  63690-4 0  9994
2 56059  87.9254 243.9876 0002175 107.4324 252.7048 13.21827362158239
ONEWEB-0559             
1 56060U 23043Q   26168.12951970 -.00000013  00000+0 -63076-4 0  9997
2 56060  87.9256 243.9849 0001910 104.9094 255.2251 13.21825470158248
ONEWEB-0566             
1 56061U 23043R   26167.97141561 -.00000007  00000+0 -48454-4 0  9993
2 56061  87.9255 244.0146 0001879 108.3648 251.7691 13.21826666158200
ONEWEB-0568             
1 56062U 23043S   26168.08693899  .00000164  00000+0  39435-3 0  9993
2 56062  87.9099 228.7913 0002338  95.5158 264.6240 13.16594733158969
ONEWEB-0574             
1 56063U 23043T   26168.11607476  .00000000  00000+0 -32231-4 0  9992
2 56063  87.9266 243.9887 0002033  93.3677 266.7690 13.21823954158260
ONEWEB-0575             
1 56064U 23043U   26168.15660481  .00000132  00000+0  31226-3 0  9999
2 56064  87.9097 228.7739 0002251  87.1851 272.9538 13.16594215158963
ONEWEB-0576             
1 56065U 23043V   26168.13759793  .00000874  00000+0  22525-2 0  9997
2 56065  87.9102 228.7852 0002095  93.2071 266.9300 13.16590459158950
ONEWEB-0577             
1 56066U 23043W   26168.14393779  .00000112  00000+0  25981-3 0  9992
2 56066  87.9098 228.7818 0002199  76.9600 283.1776 13.16593584158981
ONEWEB-0578             
1 56067U 23043X   26167.95122994  .00000075  00000+0  14909-3 0  9996
2 56067  87.9258 244.0195 0002341  97.1716 262.9684 13.21824482158209
ONEWEB-0579             
1 56068U 23043Y   26167.94282937  .00000113  00000+0  24100-3 0  9997
2 56068  87.9264 244.0180 0001777 101.9478 258.1855 13.21826595158217
ONEWEB-0581             
1 56069U 23043Z   26168.15025604  .00000148  00000+0  35444-3 0  9999
2 56069  87.9099 228.7918 0002047  81.3323 278.8040 13.16593073158955
ONEWEB-0609             
1 56070U 23043AA  26167.95320571  .00000063  00000+0  13394-3 0  9995
2 56070  87.9001 259.2581 0002031 102.5180 257.6178 13.15550128156403
ONEWEB-0613             
1 56071U 23043AB  26167.72264801  .00000109  00000+0  25582-3 0  9997
2 56071  87.9001 259.3164 0001752 106.2652 253.8671 13.15550348156372
ONEWEB-0630             
1 56072U 23043AC  26167.94607012  .00000122  00000+0  29119-3 0  9992
2 56072  87.9005 259.2435 0001786 104.7764 255.3564 13.15547070156399
ONEWEB-0632             
1 56073U 23043AD  26167.71315772  .00000088  00000+0  20055-3 0  9998
2 56073  87.9004 259.3077 0001902  95.4305 264.7042 13.15548911156366
ONEWEB-0633             
1 56074U 23043AE  26168.31526735  .00000253  00000+0  63763-3 0  9996
2 56074  87.9011 259.1633 0001849 112.9115 247.2211 13.15547099156422
ONEWEB-0634             
1 56075U 23043AF  26168.30101734  .00000056  00000+0  11524-3 0  9993
2 56075  87.9003 259.2065 0002321 103.6207 256.5182 13.15548799156416
ONEWEB-0635             
1 56076U 23043AG  26168.29624388 -.00000196  00000+0 -55433-3 0  9991
2 56076  87.9009 259.1699 0001967  92.8112 267.3243 13.15549154156441
ONEWEB-0636             
1 56077U 23043AH  26167.98410784 -.00000053  00000+0 -17510-3 0  9996
2 56077  87.9008 259.2384 0002006  94.8704 265.2656 13.15550062156385
ONEWEB-0637             
1 56078U 23043AJ  26167.97777477 -.00000155  00000+0 -44669-3 0  9999
2 56078  87.9002 259.2562 0002274  96.1913 263.9476 13.15549012156403
ONEWEB-0647             
1 56079U 23043AK  26167.97302473 -.00000100  00000+0 -29940-3 0  9995
2 56079  87.9003 259.2697 0001827  97.9518 262.1820 13.15548541156395
