OBJECT_NAME,OBJECT_ID,EPOCH,MEAN_MOTION,ECCENTRICITY,INCLINATION,RA_OF_ASC_NODE,ARG_OF_PERICENTER,MEAN_ANOMALY,EPHEMERIS_TYPE,CLASSIFICATION_TYPE,NORAD_CAT_ID,ELEMENT_SET_NO,REV_AT_EPOCH,BSTAR,MEAN_MOTION_DOT,MEAN_MOTION_DDOT
ONEWEB-0547,2023-043D,2026-06-16T22:41:17.543616,13.21825492,.0001963,87.9259,244.0223,104.0887,256.0465,0,U,56049,999,15819,-.44091E-4,-.5E-7,0
ONEWEB-0548,2023-043E,2026-06-17T02:58:44.343840,13.16597325,.0002003,87.9096,228.7827,84.9876,275.1484,0,U,56050,999,15895,.9302E-4,.48E-6,0
ONEWEB-0549,2023-043F,2026-06-16T22:32:49.234272,13.21825537,.0002126,87.9253,244.0299,109.8041,250.3322,0,U,56051,999,15819,.24469E-4,.23E-6,0
ONEWEB-0550,2023-043G,2026-06-17T03:40:27.875424,13.21825976,.0001904,87.9255,243.9851,93.6448,266.4904,0,U,56052,999,15822,.41994E-3,.186E-5,0
ONEWEB-0551,2023-043H,2026-06-17T07:22:34.550112,13.15549218,.0001967,87.9001,259.2023,111.3036,248.8304,0,U,56053,999,15641,.44781E-3,.181E-5,0
ONEWEB-0552,2023-043J,2026-06-17T03:33:09.247680,13.21828421,.000185,87.9251,243.9914,100.8758,259.2584,0,U,56054,999,15822,.21631E-3,.102E-5,0
ONEWEB-0553,2023-043K,2026-06-17T02:32:32.746848,13.16594456,.000243,87.9096,228.7906,93.6627,266.4782,0,U,56055,999,15896,-.26341E-4,.3E-7,0
ONEWEB-0554,2023-043L,2026-06-17T02:14:19.403232,13.16595652,.0001963,87.9096,228.8020,82.3932,277.7421,0,U,56056,999,15894,.18204E-3,.82E-6,0
ONEWEB-0555,2023-043M,2026-06-17T03:08:59.608608,13.16596433,.0002652,87.9100,228.7828,94.5030,265.6404,0,U,56057,999,15895,.124E-4,.18E-6,0
ONEWEB-0557,2023-043N,2026-06-17T03:29:32.349120,13.16594583,.0002746,87.9097,228.7899,71.9624,288.1806,0,U,56058,999,15895,.26367E-3,.114E-5,0
ONEWEB-0558,2023-043P,2026-06-17T03:23:28.039200,13.21827362,.0002175,87.9254,243.9876,107.4324,252.7048,0,U,56059,999,15823,.6369E-4,.39E-6,0
ONEWEB-0559,2023-043Q,2026-06-17T03:06:30.502080,13.21825470,.000191,87.9256,243.9849,104.9094,255.2251,0,U,56060,999,15824,-.63076E-4,-.13E-6,0
ONEWEB-0566,2023-043R,2026-06-16T23:18:50.308704,13.21826666,.0001879,87.9255,244.0146,108.3648,251.7691,0,U,56061,999,15820,-.48454E-4,-.7E-7,0
ONEWEB-0568,2023-043S,2026-06-17T02:05:11.528736,13.16594733,.0002338,87.9099,228.7913,95.5158,264.6240,0,U,56062,999,15896,.39435E-3,.164E-5,0
ONEWEB-0574,2023-043T,2026-06-17T02:47:08.859264,13.21823954,.0002033,87.9266,243.9887,93.3677,266.7690,0,U,56063,999,15826,-.32231E-4,0,0
ONEWEB-0575,2023-043U,2026-06-17T03:45:30.655584,13.16594215,.0002251,87.9097,228.7739,87.1851,272.9538,0,U,56064,999,15896,.31226E-3,.132E-5,0
ONEWEB-0576,2023-043V,2026-06-17T03:18:08.461152,13.16590459,.0002095,87.9102,228.7852,93.2071,266.9300,0,U,56065,999,15895,.22525E-2,.874E-5,0
ONEWEB-0577,2023-043W,2026-06-17T03:27:16.225056,13.16593584,.0002199,87.9098,228.7818,76.9600,283.1776,0,U,56066,999,15898,.25981E-3,.112E-5,0
ONEWEB-0578,2023-043X,2026-06-16T22:49:46.266816,13.21824482,.0002341,87.9258,244.0195,97.1716,262.9684,0,U,56067,999,15820,.14909E-3,.75E-6,0
ONEWEB-0579,2023-043Y,2026-06-16T22:37:40.457568,13.21826595,.0001777,87.9264,244.0180,101.9478,258.1855,0,U,56068,999,15821,.241E-3,.113E-5,0
ONEWEB-0581,2023-043Z,2026-06-17T03:36:22.121856,13.16593073,.0002047,87.9099,228.7918,81.3323,278.8040,0,U,56069,999,15895,.35444E-3,.148E-5,0
ONEWEB-0609,2023-043AA,2026-06-16T22:52:36.973344,13.15550128,.0002031,87.9001,259.2581,102.5180,257.6178,0,U,56070,999,15640,.13394E-3,.63E-6,0
ONEWEB-0613,2023-043AB,2026-06-16T17:20:36.788064,13.15550348,.0001752,87.9001,259.3164,106.2652,253.8671,0,U,56071,999,15637,.25582E-3,.109E-5,0
ONEWEB-0630,2023-043AC,2026-06-16T22:42:20.458368,13.15547070,.0001786,87.9005,259.2435,104.7764,255.3564,0,U,56072,999,15639,.29119E-3,.122E-5,0
ONEWEB-0632,2023-043AD,2026-06-16T17:06:56.827008,13.15548911,.0001902,87.9004,259.3077,95.4305,264.7042,0,U,56073,999,15636,.20055E-3,.88E-6,0
ONEWEB-0633,2023-043AE,2026-06-17T07:33:59.099040,13.15547099,.0001849,87.9011,259.1633,112.9115,247.2211,0,U,56074,999,15642,.63763E-3,.253E-5,0
ONEWEB-0634,2023-043AF,2026-06-17T07:13:27.898176,13.15548799,.0002321,87.9003,259.2065,103.6207,256.5182,0,U,56075,999,15641,.11524E-3,.56E-6,0
ONEWEB-0635,2023-043AG,2026-06-17T07:06:35.471232,13.15549154,.0001967,87.9009,259.1699,92.8112,267.3243,0,U,56076,999,15644,-.55433E-3,-.196E-5,0
ONEWEB-0636,2023-043AH,2026-06-16T23:37:06.917376,13.15550062,.0002006,87.9008,259.2384,94.8704,265.2656,0,U,56077,999,15638,-.1751E-3,-.53E-6,0
ONEWEB-0637,2023-043AJ,2026-06-16T23:27:59.740128,13.15549012,.0002274,87.9002,259.2562,96.1913,263.9476,0,U,56078,999,15640,-.44669E-3,-.155E-5,0
ONEWEB-0647,2023-043AK,2026-06-16T23:21:09.336672,13.15548541,.0001827,87.9003,259.2697,97.9518,262.1820,0,U,56079,999,15639,-.2994E-3,-.1E-5,0
